*******************************************************************************
 Revised: April 22, 2021              Neptune                               899
 
 PHYSICAL DATA (update 2021-May-03):
  Mass x10^24 (kg)      = 102.409         Density (g/cm^3)       =  1.638
  Equat. radius (1 bar) = 24766+-15 km    Volume, 10^10 km^3     = 6254     
  Vol. mean radius (km) = 24624+-21       Polar radius (km)      = 24342+-30
  Geometric Albedo      = 0.41            Flattening             =  0.0171
  Sid. rot. period (III)= 16.11+-0.01 hr  Sid. rot. rate (rad/s) =  0.000108338 
  Mean solar day, h     =~16.11 h         
  GM (km^3/s^2)         = 6835099.97      GM 1-sigma (km^3/s^2)  = +-10 
  Equ. grav, ge (m/s^2) = 11.15           Pol. grav, gp (m/s^2)  = 11.41+-0.03
  Visual magnitude V(1,0)= -6.87
  Vis. mag. (opposition)=  +7.84          Obliquity to orbit     = 28.32 deg
  Sidereal orbit period = 164.788501027 y Sidereal orbit period  = 60189 d
  Mean daily motion     = 0.006020076dg/d Mean orbit velocity    =  5.43 km/s 
  Atmos. temp. (1 bar)  =  72+-2 K        Escape speed (1 bar)  =  23.5 km/s     
  Aroche(ice)/Rp        =  2.98           Hill's sphere rad., Rp = 4700
                                 Perihelion  Aphelion    Mean
  Solar Constant (W/m^2)         1.54        1.49        1.51
  Maximum Planetary IR (W/m^2)   0.52        0.52        0.52
  Minimum Planetary IR (W/m^2)   0.52        0.52        0.52
*******************************************************************************


*******************************************************************************
Ephemeris / WWW_USER Sun Nov 17 14:03:20 2024 Pasadena, USA      / Horizons
*******************************************************************************
Target body name: Neptune (899)                   {source: nep104_merged}
Center body name: Solar System Barycenter (0)     {source: DE441}
Center-site name: BODY CENTER
*******************************************************************************
Start time      : A.D. 2024-Nov-11 00:00:00.0000 TDB
Stop  time      : A.D. 2024-Dec-11 00:00:00.0000 TDB
Step-size       : 1440 minutes
*******************************************************************************
Center geodetic : 0.0, 0.0, 0.0                   {E-lon(deg),Lat(deg),Alt(km)}
Center cylindric: 0.0, 0.0, 0.0                   {E-lon(deg),Dxy(km),Dz(km)}
Center radii    : (undefined)
Output units    : KM-S
Calendar mode   : Mixed Julian/Gregorian
Output type     : GEOMETRIC cartesian states
Output format   : 3 (position, velocity, LT, range, range-rate)
Reference frame : Ecliptic of J2000.0
*******************************************************************************
JDTDB
   X     Y     Z
   VX    VY    VZ
   LT    RG    RR
*******************************************************************************
$$SOE
2460649.500000000 = A.D. 2024-Dec-05 00:00:00.0000 TDB 
 X = 4.468910902081266E+09 Y =-1.083590279640455E+08 Z =-1.007593275819223E+08
 VX= 9.595606470066831E-02 VY= 5.465942093387418E+00 VZ=-1.148046819499302E-01
 LT= 1.491485097582300E+04 RG= 4.471359834745675E+09 RR=-3.397119255504898E-02
2460650.500000000 = A.D. 2024-Dec-06 00:00:00.0000 TDB 
 X = 4.468919164718217E+09 Y =-1.078867707658240E+08 Z =-1.007692442467343E+08
 VX= 9.530856634947223E-02 VY= 5.465936730672660E+00 VZ=-1.147483340302198E-01
 LT= 1.491484117518880E+04 RG= 4.471356896589458E+09 RR=-3.404176516951905E-02
2460651.500000000 = A.D. 2024-Dec-07 00:00:00.0000 TDB 
 X = 4.468927371381973E+09 Y =-1.074145142290737E+08 Z =-1.007791561959562E+08
 VX= 9.466038890447762E-02 VY= 5.465926781553522E+00 VZ=-1.146955247724259E-01
 LT= 1.491483135414435E+04 RG= 4.471353952314403E+09 RR=-3.411283260328903E-02
2460652.500000000 = A.D. 2024-Dec-08 00:00:00.0000 TDB 
 X = 4.468935522013863E+09 Y =-1.069422587500601E+08 Z =-1.007890637353284E+08
 VX= 9.401153237195242E-02 VY= 5.465912246029643E+00 VZ=-1.146462541766824E-01
 LT= 1.491482151254679E+04 RG= 4.471351001877679E+09 RR=-3.418439673839786E-02
2460653.500000000 = A.D. 2024-Dec-09 00:00:00.0000 TDB 
 X = 4.468943616555210E+09 Y =-1.064700047250483E+08 Z =-1.007989671705914E+08
 VX= 9.336199675816444E-02 VY= 5.465893124100663E+00 VZ=-1.146005222431257E-01
 LT= 1.491481165025268E+04 RG= 4.471348045236287E+09 RR=-3.425645945683650E-02
2460654.500000000 = A.D. 2024-Dec-10 00:00:00.0000 TDB 
 X = 4.468951654947345E+09 Y =-1.059977525503039E+08 Z =-1.008088668074855E+08
 VX= 9.271178206938140E-02 VY= 5.465869415766222E+00 VZ=-1.145583289718903E-01
 LT= 1.491480176711808E+04 RG= 4.471345082347071E+09 RR=-3.432902264054170E-02
2460655.500000000 = A.D. 2024-Dec-11 00:00:00.0000 TDB 
 X = 4.468959637131595E+09 Y =-1.055255026220924E+08 Z =-1.008187629517512E+08
 VX= 9.206088831187080E-02 VY= 5.465841121025965E+00 VZ=-1.145196743631132E-01
 LT= 1.491479186299846E+04 RG= 4.471342113166707E+09 RR=-3.440208817138966E-02
